[{"OBJECT_NAME":"ONEWEB-0572","OBJECT_ID":"2023-004M","EPOCH":"2025-08-22T11:35:05.974656","MEAN_MOTION":13.17650117,"ECCENTRICITY":0.00016522,"INCLINATION":87.9032,"RA_OF_ASC_NODE":65.3001,"ARG_OF_PERICENTER":93.9172,"MEAN_ANOMALY":266.2148,"EPHEMERIS_TYPE":0,"CLASSIFICATION_TYPE":"U","NORAD_CAT_ID":55151,"ELEMENT_SET_NO":999,"REV_AT_EPOCH":12814,"BSTAR":8.7239106e-5,"MEAN_MOTION_DOT":4.7e-7,"MEAN_MOTION_DDOT":0},{"OBJECT_NAME":"ONEWEB-0573","OBJECT_ID":"2023-004N","EPOCH":"2025-08-22T11:08:44.833920","MEAN_MOTION":13.18687228,"ECCENTRICITY":0.00012428,"INCLINATION":87.9134,"RA_OF_ASC_NODE":34.8341,"ARG_OF_PERICENTER":121.5181,"MEAN_ANOMALY":238.6073,"EPHEMERIS_TYPE":0,"CLASSIFICATION_TYPE":"U","NORAD_CAT_ID":55152,"ELEMENT_SET_NO":999,"REV_AT_EPOCH":13032,"BSTAR":-0.00023007835,"MEAN_MOTION_DOT":-7.8e-7,"MEAN_MOTION_DDOT":0},{"OBJECT_NAME":"ONEWEB-0588","OBJECT_ID":"2023-004P","EPOCH":"2025-08-22T10:59:15.536544","MEAN_MOTION":13.18687746,"ECCENTRICITY":0.00016482,"INCLINATION":87.9139,"RA_OF_ASC_NODE":34.8206,"ARG_OF_PERICENTER":109.0677,"MEAN_ANOMALY":251.0634,"EPHEMERIS_TYPE":0,"CLASSIFICATION_TYPE":"U","NORAD_CAT_ID":55153,"ELEMENT_SET_NO":999,"REV_AT_EPOCH":13032,"BSTAR":0.00020376905,"MEAN_MOTION_DOT":9.3e-7,"MEAN_MOTION_DDOT":0},{"OBJECT_NAME":"ONEWEB-0598","OBJECT_ID":"2023-004Q","EPOCH":"2025-08-22T07:20:21.409440","MEAN_MOTION":13.11418567,"ECCENTRICITY":0.00011284,"INCLINATION":87.8777,"RA_OF_ASC_NODE":80.6425,"ARG_OF_PERICENTER":76.8264,"MEAN_ANOMALY":283.299,"EPHEMERIS_TYPE":0,"CLASSIFICATION_TYPE":"U","NORAD_CAT_ID":55154,"ELEMENT_SET_NO":999,"REV_AT_EPOCH":12672,"BSTAR":-0.0007829287,"MEAN_MOTION_DOT":-2.65e-6,"MEAN_MOTION_DDOT":0},{"OBJECT_NAME":"ONEWEB-0599","OBJECT_ID":"2023-004R","EPOCH":"2025-08-20T18:33:31.169088","MEAN_MOTION":13.17651478,"ECCENTRICITY":0.0001654,"INCLINATION":87.9028,"RA_OF_ASC_NODE":65.6456,"ARG_OF_PERICENTER":81.7906,"MEAN_ANOMALY":278.3413,"EPHEMERIS_TYPE":0,"CLASSIFICATION_TYPE":"U","NORAD_CAT_ID":55155,"ELEMENT_SET_NO":999,"REV_AT_EPOCH":12792,"BSTAR":5.7425e-5,"MEAN_MOTION_DOT":3.5e-7,"MEAN_MOTION_DDOT":0},{"OBJECT_NAME":"ONEWEB-0614","OBJECT_ID":"2023-004S","EPOCH":"2025-08-22T12:42:38.168352","MEAN_MOTION":13.11417339,"ECCENTRICITY":0.00018964,"INCLINATION":87.8777,"RA_OF_ASC_NODE":80.608,"ARG_OF_PERICENTER":94.5755,"MEAN_ANOMALY":265.559,"EPHEMERIS_TYPE":0,"CLASSIFICATION_TYPE":"U","NORAD_CAT_ID":55156,"ELEMENT_SET_NO":999,"REV_AT_EPOCH":12669,"BSTAR":-0.0012269152,"MEAN_MOTION_DOT":-4.22e-6,"MEAN_MOTION_DDOT":0},{"OBJECT_NAME":"ONEWEB-0616","OBJECT_ID":"2023-004T","EPOCH":"2025-08-22T11:39:57.143520","MEAN_MOTION":13.17649603,"ECCENTRICITY":0.00022161,"INCLINATION":87.903,"RA_OF_ASC_NODE":65.2944,"ARG_OF_PERICENTER":61.0327,"MEAN_ANOMALY":299.1026,"EPHEMERIS_TYPE":0,"CLASSIFICATION_TYPE":"U","NORAD_CAT_ID":55157,"ELEMENT_SET_NO":999,"REV_AT_EPOCH":12836,"BSTAR":6.5589536e-5,"MEAN_MOTION_DOT":3.8e-7,"MEAN_MOTION_DDOT":0},{"OBJECT_NAME":"ONEWEB-0617","OBJECT_ID":"2023-004U","EPOCH":"2025-08-22T12:25:32.696256","MEAN_MOTION":13.11415013,"ECCENTRICITY":0.00016514,"INCLINATION":87.8774,"RA_OF_ASC_NODE":80.5883,"ARG_OF_PERICENTER":97.0924,"MEAN_ANOMALY":263.0392,"EPHEMERIS_TYPE":0,"CLASSIFICATION_TYPE":"U","NORAD_CAT_ID":55158,"ELEMENT_SET_NO":999,"REV_AT_EPOCH":12671,"BSTAR":-0.0011151436,"MEAN_MOTION_DOT":-3.82e-6,"MEAN_MOTION_DDOT":0},{"OBJECT_NAME":"ONEWEB-0618","OBJECT_ID":"2023-004V","EPOCH":"2025-08-20T16:09:18.136512","MEAN_MOTION":14.67978991,"ECCENTRICITY":0.0013074,"INCLINATION":86.9094,"RA_OF_ASC_NODE":298.4998,"ARG_OF_PERICENTER":330.5485,"MEAN_ANOMALY":29.4992,"EPHEMERIS_TYPE":0,"CLASSIFICATION_TYPE":"U","NORAD_CAT_ID":55159,"ELEMENT_SET_NO":999,"REV_AT_EPOCH":13702,"BSTAR":0.00015397,"MEAN_MOTION_DOT":9.05e-6,"MEAN_MOTION_DDOT":0},{"OBJECT_NAME":"ONEWEB-0619","OBJECT_ID":"2023-004W","EPOCH":"2025-08-22T12:26:07.283904","MEAN_MOTION":13.17650873,"ECCENTRICITY":0.00022858,"INCLINATION":87.9024,"RA_OF_ASC_NODE":65.2631,"ARG_OF_PERICENTER":88.9572,"MEAN_ANOMALY":271.1822,"EPHEMERIS_TYPE":0,"CLASSIFICATION_TYPE":"U","NORAD_CAT_ID":55160,"ELEMENT_SET_NO":999,"REV_AT_EPOCH":12826,"BSTAR":0.00010960121,"MEAN_MOTION_DOT":5.5e-7,"MEAN_MOTION_DDOT":0},{"OBJECT_NAME":"ONEWEB-0620","OBJECT_ID":"2023-004X","EPOCH":"2025-08-22T12:18:13.161312","MEAN_MOTION":13.11415554,"ECCENTRICITY":0.00014922,"INCLINATION":87.8776,"RA_OF_ASC_NODE":80.611,"ARG_OF_PERICENTER":88.5804,"MEAN_ANOMALY":271.5495,"EPHEMERIS_TYPE":0,"CLASSIFICATION_TYPE":"U","NORAD_CAT_ID":55161,"ELEMENT_SET_NO":999,"REV_AT_EPOCH":12668,"BSTAR":-0.000615562,"MEAN_MOTION_DOT":-2.05e-6,"MEAN_MOTION_DDOT":0},{"OBJECT_NAME":"ONEWEB-0621","OBJECT_ID":"2023-004Y","EPOCH":"2025-08-22T07:27:41.760000","MEAN_MOTION":13.11413695,"ECCENTRICITY":0.00021032,"INCLINATION":87.8787,"RA_OF_ASC_NODE":80.6092,"ARG_OF_PERICENTER":93.8242,"MEAN_ANOMALY":266.3126,"EPHEMERIS_TYPE":0,"CLASSIFICATION_TYPE":"U","NORAD_CAT_ID":55162,"ELEMENT_SET_NO":999,"REV_AT_EPOCH":12663,"BSTAR":0.0022651412,"MEAN_MOTION_DOT":8.16e-6,"MEAN_MOTION_DDOT":0},{"OBJECT_NAME":"ONEWEB-0622","OBJECT_ID":"2023-004Z","EPOCH":"2025-08-22T11:14:45.087360","MEAN_MOTION":13.11418357,"ECCENTRICITY":0.0001872,"INCLINATION":87.8778,"RA_OF_ASC_NODE":80.5993,"ARG_OF_PERICENTER":110.1263,"MEAN_ANOMALY":250.0067,"EPHEMERIS_TYPE":0,"CLASSIFICATION_TYPE":"U","NORAD_CAT_ID":55163,"ELEMENT_SET_NO":999,"REV_AT_EPOCH":12664,"BSTAR":0.00020447815,"MEAN_MOTION_DOT":8.5e-7,"MEAN_MOTION_DDOT":0},{"OBJECT_NAME":"ONEWEB-0623","OBJECT_ID":"2023-004AA","EPOCH":"2025-08-22T12:18:48.927456","MEAN_MOTION":13.17647149,"ECCENTRICITY":0.00022632,"INCLINATION":87.9024,"RA_OF_ASC_NODE":65.3207,"ARG_OF_PERICENTER":105.5422,"MEAN_ANOMALY":254.5959,"EPHEMERIS_TYPE":0,"CLASSIFICATION_TYPE":"U","NORAD_CAT_ID":55164,"ELEMENT_SET_NO":999,"REV_AT_EPOCH":12825,"BSTAR":4.919923e-6,"MEAN_MOTION_DOT":1.5e-7,"MEAN_MOTION_DDOT":0},{"OBJECT_NAME":"ONEWEB-0624","OBJECT_ID":"2023-004AB","EPOCH":"2025-08-20T18:40:08.659200","MEAN_MOTION":13.12944244,"ECCENTRICITY":0.0001799,"INCLINATION":87.8858,"RA_OF_ASC_NODE":50.3527,"ARG_OF_PERICENTER":91.1139,"MEAN_ANOMALY":269.0196,"EPHEMERIS_TYPE":0,"CLASSIFICATION_TYPE":"U","NORAD_CAT_ID":55165,"ELEMENT_SET_NO":999,"REV_AT_EPOCH":12865,"BSTAR":0.00046288,"MEAN_MOTION_DOT":1.8e-6,"MEAN_MOTION_DDOT":0},{"OBJECT_NAME":"ONEWEB-0625","OBJECT_ID":"2023-004AC","EPOCH":"2025-08-22T12:04:14.241504","MEAN_MOTION":13.17649586,"ECCENTRICITY":0.00017931,"INCLINATION":87.9022,"RA_OF_ASC_NODE":65.3197,"ARG_OF_PERICENTER":83.1573,"MEAN_ANOMALY":276.9763,"EPHEMERIS_TYPE":0,"CLASSIFICATION_TYPE":"U","NORAD_CAT_ID":55166,"ELEMENT_SET_NO":999,"REV_AT_EPOCH":12824,"BSTAR":9.7542741e-5,"MEAN_MOTION_DOT":5.1e-7,"MEAN_MOTION_DDOT":0},{"OBJECT_NAME":"ONEWEB-0626","OBJECT_ID":"2023-004AD","EPOCH":"2025-08-22T11:49:39.611712","MEAN_MOTION":13.17649455,"ECCENTRICITY":0.00012147,"INCLINATION":87.9023,"RA_OF_ASC_NODE":65.3202,"ARG_OF_PERICENTER":85.9676,"MEAN_ANOMALY":274.1594,"EPHEMERIS_TYPE":0,"CLASSIFICATION_TYPE":"U","NORAD_CAT_ID":55167,"ELEMENT_SET_NO":999,"REV_AT_EPOCH":12824,"BSTAR":0.0001238802,"MEAN_MOTION_DOT":6.1e-7,"MEAN_MOTION_DDOT":0}]
