ONEWEB-0572             
1 55151U 23004M   25234.48270804  .00000047  00000+0  87239-4 0  9998
2 55151  87.9032  65.3001 0001652  93.9172 266.2148 13.17650117128145
ONEWEB-0573             
1 55152U 23004N   25234.46440780 -.00000078  00000+0 -23008-3 0  9998
2 55152  87.9134  34.8341 0001242 121.5181 238.6073 13.18687228130327
ONEWEB-0588             
1 55153U 23004P   25234.45781871  .00000093  00000+0  20377-3 0  9998
2 55153  87.9139  34.8206 0001648 109.0677 251.0634 13.18687746130321
ONEWEB-0598             
1 55154U 23004Q   25234.30580335 -.00000265  00000+0 -78293-3 0  9998
2 55154  87.8777  80.6425 0001128  76.8264 283.2990 13.11418567126724
ONEWEB-0599             
1 55155U 23004R   25232.77327742  .00000035  00000+0  57425-4 0  9997
2 55155  87.9028  65.6456 0001654  81.7906 278.3413 13.17651478127928
ONEWEB-0614             
1 55156U 23004S   25234.52960843 -.00000422  00000+0 -12269-2 0  9995
2 55156  87.8777  80.6080 0001896  94.5755 265.5590 13.11417339126698
ONEWEB-0616             
1 55157U 23004T   25234.48607805  .00000038  00000+0  65590-4 0  9995
2 55157  87.9030  65.2944 0002216  61.0327 299.1026 13.17649603128361
ONEWEB-0617             
1 55158U 23004U   25234.51773954 -.00000382  00000+0 -11151-2 0  9995
2 55158  87.8774  80.5883 0001651  97.0924 263.0392 13.11415013126715
ONEWEB-0618             
1 55159U 23004V   25232.67312658  .00000905  00000+0  15397-3 0  9997
2 55159  86.9094 298.4998 0013074 330.5485  29.4992 14.67978991137024
ONEWEB-0619             
1 55160U 23004W   25234.51813986  .00000055  00000+0  10960-3 0  9991
2 55160  87.9024  65.2631 0002285  88.9572 271.1822 13.17650873128261
ONEWEB-0620             
1 55161U 23004X   25234.51265233 -.00000205  00000+0 -61556-3 0  9994
2 55161  87.8776  80.6110 0001492  88.5804 271.5495 13.11415554126684
ONEWEB-0621             
1 55162U 23004Y   25234.31090000  .00000816  00000+0  22651-2 0  9999
2 55162  87.8787  80.6092 0002103  93.8242 266.3126 13.11413695126633
ONEWEB-0622             
1 55163U 23004Z   25234.46857740  .00000085  00000+0  20448-3 0  9999
2 55163  87.8778  80.5993 0001872 110.1263 250.0067 13.11418357126646
ONEWEB-0623             
1 55164U 23004AA  25234.51306629  .00000015  00000+0  49199-5 0  9990
2 55164  87.9024  65.3207 0002263 105.5422 254.5959 13.17647149128258
ONEWEB-0624             
1 55165U 23004AB  25232.77787800  .00000180  00000+0  46288-3 0  9998
2 55165  87.8858  50.3527 0001799  91.1139 269.0196 13.12944244128659
ONEWEB-0625             
1 55166U 23004AC  25234.50294261  .00000051  00000+0  97543-4 0  9994
2 55166  87.9022  65.3197 0001793  83.1573 276.9763 13.17649586128248
ONEWEB-0626             
1 55167U 23004AD  25234.49281958  .00000061  00000+0  12388-3 0  9996
2 55167  87.9023  65.3202 0001214  85.9676 274.1594 13.17649455128246
